ORBCOMM FM103 [+]       
1 40091U 14040F   24107.62511273  .00002075  00000+0  49956-3 0  9993
2 40091  47.0049 229.7085 0001460 147.9169 212.1805 14.56469818501884
ORBCOMM FM114 [+]       
1 41179U 15081A   24107.38460471  .00001567  00000+0  38641-3 0  9997
2 41179  47.0014 140.1333 0001858 221.8623 138.2120 14.56479263442218
ORBCOMM FM119 [-]       
1 41180U 15081B   24107.56000469  .00002101  00000+0  50549-3 0  9992
2 41180  47.0021  48.4934 0001988 268.4003  91.6654 14.56456361443497
ORBCOMM FM105 [-]       
1 41181U 15081C   24107.12598245  .00000762  00000+0  26489-3 0  9996
2 41181  47.0033  15.2284 0001997 225.4607 134.6110 14.44317832438994
ORBCOMM FM110 [+]       
1 41182U 15081D   24107.36174815  .00001553  00000+0  38329-3 0  9991
2 41182  47.0004 139.6509 0002068 336.7991  23.2800 14.56479802442089
ORBCOMM FM118 [+]       
1 41183U 15081E   24107.13316721  .00001354  00000+0  33904-3 0  9994
2 41183  47.0025 141.0269 0002210 335.0938  24.9840 14.56477658442152
ORBCOMM FM112 [+]       
1 41184U 15081F   24107.53780446  .00002069  00000+0  49840-3 0  9998
2 41184  47.0003  47.8239 0001447 259.9879 100.0842 14.56466571443430
ORBCOMM FM113 [+]       
1 41185U 15081G   24107.51489533  .00002130  00000+0  51199-3 0  9999
2 41185  47.0021  48.1935 0001399 279.2082  80.8644 14.56466664443411
